MEAN_MOTION;ECCENTRICITY;INCLINATION;RA_OF_ASC_NODE;ARG_OF_PERICENTER;MEAN_ANOMALY;BSTAR;MEAN_MOTION_DOT;MEAN_MOTION_DDOT;TYPE
12.44468748;0.0011081;50.0175;21.6017;259.1958;116.5917;-3.7993E-5;-1.03E-6;0;Amateur
12.44468746;0.001108;50.0175;21.2962;259.4646;201.9051;-5.0916E-5;-1.05E-6;0;Amateur
12.4446874;0.0011076;50.0176;18.3783;261.8999;134.2321;-4.715E-5;-1.04E-6;0;Amateur
12.44468747;0.0011074;50.0176;15.3709;264.4281;197.1273;-4.605E-5;-1.04E-6;0;Amateur
12.44468749;0.0011073;50.0176;15.1188;264.6286;204.4086;-5.2429E-5;-1.05E-6;0;Amateur
12.44468744;0.0011071;50.0176;14.6357;265.0311;188.5731;-5.0314E-5;-1.04E-6;0;Amateur
12.44468753;0.0011068;50.0176;12.2063;267.0579;128.9387;-3.5404E-5;-1.02E-6;0;Amateur
12.44468758;0.0011069;50.0177;11.1448;267.9678;235.8512;-1.2719E-5;-9.9E-7;0;Amateur
12.44468757;0.0011071;50.0177;9.5093;269.3368;99.3123;8.2385E-7;-9.7E-7;0;Amateur
12.44468758;0.0011061;50.0176;6.2874;272.0118;114.5399;1.8009E-5;-9.5E-7;0;Amateur
12.44468795;0.0011059;50.0176;2.7663;274.9927;205.9202;5.1433E-5;-9.0E-7;0;Amateur
12.44468754;0.0011058;50.0176;359.5812;277.709;167.6968;5.3813E-5;-9.0E-7;0;Amateur
12.44468745;0.0011057;50.0176;359.327;277.9202;178.1036;5.3596E-5;-9.0E-7;0;Amateur
12.44468743;0.0011055;50.0176;356.6212;280.1839;161.3621;4.8753E-5;-9.0E-7;0;Amateur
12.44468772;0.0011057;50.0178;356.3647;280.3931;175.3589;9.74E-6;-9.6E-7;0;Amateur
12.44468746;0.0011058;50.0177;350.9746;284.9169;110.3769;1.0236E-5;-9.6E-7;0;Amateur
12.44468749;0.0011059;50.0177;350.4455;285.3403;161.4031;1.0011E-5;-9.6E-7;0;Amateur
12.44468773;0.0011051;50.0176;347.4861;287.8197;154.2232;3.1085E-5;-9.3E-7;0;Amateur
12.44468765;0.0011054;50.0176;346.6959;288.4939;225.8067;3.0898E-5;-9.3E-7;0;Amateur
12.44468764;0.001106;50.0175;344.2702;290.5091;160.7444;3.5177E-5;-9.2E-7;0;Amateur
12.44468764;0.001106;50.0175;343.738;290.9666;216.1822;3.924E-5;-9.2E-7;0;Amateur
12.44468792;0.0011063;50.0174;341.311;292.9766;153.0556;5.4587E-5;-9.0E-7;0;Amateur
12.44468817;0.0011049;50.0174;340.5144;293.6465;233.8758;6.789E-5;-8.8E-7;0;Amateur
12.44468835;0.0011052;50.0169;338.0982;295.6582;155.6089;7.1742E-5;-8.7E-7;0;Amateur
12.44468907;0.0011053;50.0169;335.1354;298.1552;153.3643;0.00012033;-8.0E-7;0;Amateur
12.4446892;0.0011052;50.0167;331.9213;300.8202;157.2458;0.00014576;-7.7E-7;0;Amateur
12.4446888;0.0011043;50.0165;329.2145;302.988;141.7602;0.00012126;-8.0E-7;0;Amateur
12.4446888;0.0011041;50.0165;328.9625;303.186;148.9086;0.00012802;-7.9E-7;0;Amateur
12.44468907;0.0011049;50.0164;326.7864;305.0242;80.0445;0.00014117;-7.7E-7;0;Amateur
12.44468911;0.0011051;50.0165;325.999;305.6615;147.4512;0.00013634;-7.8E-7;0;Amateur
12.44468917;0.0011054;50.0164;325.4665;306.1291;203.449;0.00014679;-7.7E-7;0;Amateur
12.44468915;0.0011055;50.0162;320.0793;310.6383;133.8221;9.4915E-5;-8.4E-7;0;Amateur
12.44468928;0.001105;50.0166;319.8258;310.8477;142.858;5.297E-5;-9.0E-7;0;Amateur
12.44468949;0.001105;50.0166;319.2862;311.3181;209.0901;6.3942E-5;-8.8E-7;0;Amateur
12.44468966;0.0011051;50.016;316.8626;313.3361;141.233;8.2228E-5;-8.6E-7;0;Amateur
12.4446897;0.0011055;50.0159;313.9025;315.8118;134.9167;4.4283E-5;-9.1E-7;0;Amateur
12.4446898;0.0011078;50.0161;310.412;318.7569;180.6733;7.4199E-5;-8.7E-7;0;Amateur
12.44468977;0.0011083;50.0156;307.7262;321.0206;134.9745;5.2158E-6;-9.7E-7;0;Amateur
12.44468993;0.0011071;50.0153;304.7675;323.4614;126.5765;8.7218E-6;-9.6E-7;0;Amateur
12.44468994;0.001107;50.0152;303.9712;324.1348;206.8803;2.057E-5;-9.4E-7;0;Amateur
12.44469042;0.0011074;50.015;301.0117;326.5938;199.3816;7.6196E-5;-8.7E-7;0;Amateur
12.44469023;0.0011057;50.0149;298.5945;328.5189;121.4768;7.021E-5;-8.7E-7;0;Amateur
12.44469041;0.0011056;50.0147;295.6309;330.9844;119.9613;9.673E-5;-8.4E-7;0;Amateur
12.44469045;0.0011056;50.0147;294.8362;331.6522;197.8775;0.00010997;-8.2E-7;0;Amateur
12.44469055;0.0011068;50.0147;292.4164;333.6846;123.8546;0.00012332;-8.0E-7;0;Amateur
12.44469044;0.0011063;50.0146;289.4511;336.1174;124.8397;0.00010052;-8.3E-7;0;Amateur
12.44469087;0.0011056;50.0146;287.2379;337.9149;109.6471;9.8993E-5;-8.3E-7;0;Amateur
12.44469078;0.001106;50.0146;286.4946;338.542;112.8628;7.7885E-5;-8.6E-7;0;Amateur
12.44469094;0.001107;50.0146;282.7396;341.6855;184.3976;4.5146E-5;-9.1E-7;0;Amateur
12.44469127;0.0011064;50.0145;279.7836;344.0987;171.7685;1.5794E-5;-9.5E-7;0;Amateur
12.44469104;0.0011068;50.0146;277.3569;346.0963;107.9487;-4.7762E-5;-1.04E-6;0;Amateur
12.44469078;0.0011075;50.0145;274.3984;348.5531;99.0636;-8.8903E-5;-1.1E-6;0;Amateur
12.4446907;0.0011078;50.015;271.9228;350.5874;106.6983;-1.3052E-5;-9.9E-7;0;Amateur
12.44469068;0.0011077;50.015;271.1843;351.2063;102.7488;-1.722E-5;-1.0E-6;0;Amateur
12.44469077;0.0011086;50.0151;268.2212;353.6614;100.6496;-1.5614E-5;-1.0E-6;0;Amateur
12.4446909;0.0011094;50.0151;265.2623;356.1057;92.4915;-1.3273E-5;-9.9E-7;0;Amateur
12.44469071;0.0011099;50.0145;262.3019;358.5869;85.9105;4.7341E-5;-9.1E-7;0;Amateur
12.44469077;0.0011096;50.0145;262.0485;358.7867;95.3422;6.3374E-5;-8.8E-7;0;Amateur
12.44469091;0.0011113;50.0147;254.4208;5.1268;50.5015;8.6548E-5;-8.5E-7;0;Amateur
12.44469082;0.0011116;50.0147;252.9115;6.3763;89.9547;7.0799E-5;-8.7E-7;0;Amateur
12.44469073;0.0011117;50.0152;249.9537;8.7857;80.7947;-2.6915E-5;-1.01E-6;0;Amateur
12.44469069;0.0011122;50.0152;248.2424;10.1827;54.64;-2.3913E-5;-1.01E-6;0;Amateur
12.44469091;0.0011123;50.0148;246.9901;11.239;79.0725;-2.219E-5;-1.01E-6;0;Amateur
12.44469092;0.0011125;50.0148;243.775;13.8907;84.3782;-5.6041E-5;-1.05E-6;0;Amateur
12.44469083;0.0011123;50.0148;241.0692;16.13;67.444;-9.1482E-5;-1.1E-6;0;Amateur
12.4446908;0.0011124;50.0148;240.8173;16.3392;74.4738;-8.8344E-5;-1.1E-6;0;Amateur
12.44469069;0.0011132;50.0148;237.854;18.7753;72.9657;-0.00010418;-1.12E-6;0;Amateur
12.44469106;0.0011133;50.0152;234.6393;21.4022;77.687;1.824E-5;-9.5E-7;0;Amateur
12.44469106;0.0011133;50.0152;234.6393;21.4022;77.687;1.824E-5;-9.5E-7;0;Amateur
12.44469114;0.0011136;50.0151;231.6812;23.8304;68.5244;1.92E-5;-9.5E-7;0;Amateur
12.44469039;0.0011139;50.0146;228.7183;26.2793;66.1434;1.8299E-5;-9.5E-7;0;Amateur
12.44469118;0.0011144;50.0151;227.9225;26.9093;145.9494;1.9586E-5;-9.5E-7;0;Amateur
12.44469081;0.0011154;50.0145;224.9652;29.3446;135.6659;0.00012784;-7.9E-7;0;Amateur
12.44469095;0.0011152;50.0146;222.5455;31.3109;61.9205;0.00015759;-7.5E-7;0;Amateur
12.44469115;0.0011157;50.0145;220.8318;32.6958;39.2821;0.00017435;-7.3E-7;0;Amateur
12.44469118;0.0011156;50.0145;219.582;33.7412;60.558;0.00016342;-7.4E-7;0;Amateur
12.44469154;0.0011165;50.0144;214.4006;37.9622;51.394;0.00013197;-7.9E-7;0;Amateur
12.4446915;0.0011168;50.0144;213.4086;38.7935;57.0825;0.0001016;-8.3E-7;0;Amateur
12.44469153;0.0011168;50.0146;210.4459;41.2207;54.2937;5.5197E-5;-9.0E-7;0;Amateur
12.44469156;0.0011172;50.0145;207.4864;43.652;47.0316;5.6779E-5;-8.9E-7;0;Amateur
12.44469173;0.0011181;50.0139;204.2742;46.2884;48.6439;-2.7502E-5;-1.01E-6;0;Amateur
12.44469182;0.0011185;50.0137;201.3151;48.7144;40.8843;-2.5607E-5;-1.01E-6;0;Amateur
12.4446919;0.0011184;50.0135;198.3515;51.1585;39.6225;2.7465E-7;-9.7E-7;0;Amateur
12.44469192;0.0011189;50.0133;195.1379;53.7735;42.7682;6.106E-5;-8.9E-7;0;Amateur
12.44469198;0.0011192;50.0132;192.1794;56.1821;33.9418;0.00011192;-8.2E-7;0;Amateur
12.44469232;0.0011199;50.0131;188.6832;59.0731;88.6781;0.00017047;-7.3E-7;0;Amateur
12.44469253;0.0011204;50.013;185.7243;61.4557;80.5867;0.00018626;-7.1E-7;0;Amateur
12.44469274;0.0011206;50.0136;183.0425;63.6324;28.5971;3.318E-5;-9.3E-7;0;Amateur
12.44469297;0.001121;50.0129;180.8707;65.4106;313.4806;0.00014308;-7.7E-7;0;Amateur
12.44469316;0.0011211;50.0129;180.0789;66.0556;27.3852;0.00013216;-7.9E-7;0;Amateur
12.44469328;0.0011212;50.0129;178.374;67.4395;351.9096;0.0001013;-8.3E-7;0;Amateur
12.44469344;0.001121;50.0128;176.8654;68.6692;30.329;7.9483E-5;-8.6E-7;0;Amateur
12.44469361;0.0011212;50.0127;174.6986;70.3992;307.9936;4.0343E-5;-9.2E-7;0;Amateur
12.44469356;0.0011212;50.0127;173.9065;71.0494;22.1518;2.0549E-5;-9.5E-7;0;Amateur
12.44469349;0.0011211;50.0126;169.2391;74.8025;343.7876;-6.4025E-5;-1.07E-6;0;Amateur
12.44469345;0.001121;50.0125;168.5114;75.4279;324.1204;-7.4645E-5;-1.08E-6;0;Amateur
12.44469342;0.001121;50.0125;166.2785;77.2617;337.7108;-6.5324E-5;-1.07E-6;0;Amateur
12.44469337;0.0011208;50.0124;163.0553;79.914;354.5258;-3.6532E-5;-1.03E-6;0;Amateur
12.44469323;0.0011207;50.0123;162.0627;80.7656;0.7281;-5.06E-5;-1.05E-6;0;Amateur
12.44469316;0.0011207;50.0123;160.1026;82.3778;336.964;-2.1579E-5;-1.01E-6;0;Amateur
12.44469315;0.0011206;50.0123;156.677;85.1647;288.7806;4.5371E-5;-9.1E-7;0;Amateur
12.44469322;0.0011207;50.0123;155.3518;86.288;59.6714;6.3532E-5;-8.9E-7;0;Amateur
12.44469337;0.0011205;50.0124;153.9189;87.4496;347.7945;8.764E-5;-8.5E-7;0;Amateur
12.44469353;0.0011205;50.0133;150.7072;90.0666;348.0603;-3.7079E-5;-1.03E-6;0;Amateur
12.44469341;0.0011206;50.0133;149.1785;91.33;55.5503;-4.6455E-5;-1.04E-6;0;Amateur
12.44469337;0.0011204;50.0133;147.7488;92.4862;339.028;-4.9136E-5;-1.04E-6;0;Amateur
12.44469356;0.0011212;50.0126;146.216;93.7228;52.4182;6.5309E-5;-8.8E-7;0;Amateur
12.44469391;0.0011216;50.0127;141.8259;97.2095;330.0147;4.9601E-6;-9.7E-7;0;Amateur
12.44469402;0.0011217;50.0129;138.6114;99.8268;334.2413;-4.3247E-5;-1.04E-6;0;Amateur
12.44469386;0.001122;50.013;135.6527;102.2433;325.5309;-9.4239E-5;-1.11E-6;0;Amateur
12.44469389;0.0011221;50.013;135.3926;102.4527;344.6512;-9.2489E-5;-1.11E-6;0;Amateur
12.4446935;0.0011217;50.0131;132.4343;104.9626;335.2019;-0.00014394;-1.18E-6;0;Amateur
12.44469289;0.0011216;50.0132;129.2672;107.5528;270.0785;-0.00017615;-1.22E-6;0;Amateur
12.44469313;0.0011216;50.0142;126.0473;110.2221;282.343;-8.3597E-5;-1.09E-6;0;Amateur
12.44469303;0.0011219;50.0142;124.7277;111.299;45.398;-8.9657E-5;-1.1E-6;0;Amateur
12.44469279;0.0011217;50.0136;123.0885;112.6719;273.3916;-7.4213E-5;-1.08E-6;0;Amateur
12.44469297;0.0011213;50.0138;119.8696;115.287;284.0516;-7.6288E-6;-9.9E-7;0;Amateur
